$$SOE
2460714.500000000, A.D. 2025-Feb-08 00:00:00.0000, -4.148162044071016E+09, -2.703376058799665E+09, 2.238945676199803E+08,
2460721.500000000, A.D. 2025-Feb-15 00:00:00.0000, -4.146582930716535E+09, -2.706331725033792E+09, 2.242276918810211E+08,
2460728.500000000, A.D. 2025-Feb-22 00:00:00.0000, -4.145002171831612E+09, -2.709286401126247E+09, 2.245607273229234E+08,
2460735.500000000, A.D. 2025-Mar-01 00:00:00.0000, -4.143419766072887E+09, -2.712240085703283E+09, 2.248936736593155E+08,
2460742.500000000, A.D. 2025-Mar-08 00:00:00.0000, -4.141835711015701E+09, -2.715192777507627E+09, 2.252265304529592E+08,
2460749.500000000, A.D. 2025-Mar-15 00:00:00.0000, -4.140250003176332E+09, -2.718144473562977E+09, 2.255592972712802E+08,
2460756.500000000, A.D. 2025-Mar-22 00:00:00.0000, -4.138662640242393E+09, -2.721095168751440E+09, 2.258919739302820E+08,
2460763.500000000, A.D. 2025-Mar-29 00:00:00.0000, -4.137073621933897E+09, -2.724044857645665E+09, 2.262245604296821E+08,
2460770.500000000, A.D. 2025-Apr-05 00:00:00.0000, -4.135482949169750E+09, -2.726993535457261E+09, 2.265570568056260E+08,
2460777.500000000, A.D. 2025-Apr-12 00:00:00.0000, -4.133890623465629E+09, -2.729941197997283E+09, 2.268894630858324E+08,
2460784.500000000, A.D. 2025-Apr-19 00:00:00.0000, -4.132296646750424E+09, -2.732887841529876E+09, 2.272217792920244E+08,
2460791.500000000, A.D. 2025-Apr-26 00:00:00.0000, -4.130701021329604E+09, -2.735833462721751E+09, 2.275540054478799E+08,
2460798.500000000, A.D. 2025-May-03 00:00:00.0000, -4.129103749881815E+09, -2.738778058667951E+09, 2.278861415834109E+08,
2460805.500000000, A.D. 2025-May-10 00:00:00.0000, -4.127504835460131E+09, -2.741721626984889E+09, 2.282181877336826E+08,
2460812.500000000, A.D. 2025-May-17 00:00:00.0000, -4.125904281461217E+09, -2.744664166011353E+09, 2.285501439250180E+08,
2460819.500000000, A.D. 2025-May-24 00:00:00.0000, -4.124302091388496E+09, -2.747605675171684E+09, 2.288820101281823E+08,
2460826.500000000, A.D. 2025-May-31 00:00:00.0000, -4.122698267991530E+09, -2.750546155189868E+09, 2.292137861656075E+08,
2460833.500000000, A.D. 2025-Jun-07 00:00:00.0000, -4.121092812182572E+09, -2.753485606949561E+09, 2.295454717078518E+08,
2460840.500000000, A.D. 2025-Jun-14 00:00:00.0000, -4.119485724094824E+09, -2.756424029666676E+09, 2.298770665216930E+08,
2460847.500000000, A.D. 2025-Jun-21 00:00:00.0000, -4.117877005065657E+09, -2.759361421645709E+09, 2.302085705909262E+08,
2460854.500000000, A.D. 2025-Jun-28 00:00:00.0000, -4.116266657416578E+09, -2.762297781854966E+09, 2.305399839671923E+08,
2460861.500000000, A.D. 2025-Jul-05 00:00:00.0000, -4.114654683546670E+09, -2.765233110164041E+09, 2.308713066662309E+08,
2460868.500000000, A.D. 2025-Jul-12 00:00:00.0000, -4.113041085530510E+09, -2.768167407048757E+09, 2.312025386530412E+08,
2460875.500000000, A.D. 2025-Jul-19 00:00:00.0000, -4.111425865030994E+09, -2.771100673338463E+09, 2.315336798516328E+08,
2460882.500000000, A.D. 2025-Jul-26 00:00:00.0000, -4.109809023317130E+09, -2.774032910062130E+09, 2.318647301555732E+08,
2460889.500000000, A.D. 2025-Aug-02 00:00:00.0000, -4.108190561321415E+09, -2.776964118371428E+09, 2.321956894352207E+08,
2460896.500000000, A.D. 2025-Aug-09 00:00:00.0000, -4.106570479713395E+09, -2.779894299555179E+09, 2.325265575384289E+08,
2460903.500000000, A.D. 2025-Aug-16 00:00:00.0000, -4.104948778912434E+09, -2.782823455208163E+09, 2.328573342726887E+08,
2460910.500000000, A.D. 2025-Aug-23 00:00:00.0000, -4.103325458747098E+09, -2.785751587537502E+09, 2.331880193434073E+08,
2460917.500000000, A.D. 2025-Aug-30 00:00:00.0000, -4.101700517432191E+09, -2.788678699092346E+09, 2.335186122767550E+08,
2460924.500000000, A.D. 2025-Sep-06 00:00:00.0000, -4.100073951281590E+09, -2.791604790916392E+09, 2.338491125391335E+08,
2460931.500000000, A.D. 2025-Sep-13 00:00:00.0000, -4.098445756827620E+09, -2.794529861605971E+09, 2.341795198038654E+08,
2460938.500000000, A.D. 2025-Sep-20 00:00:00.0000, -4.096815932073751E+09, -2.797453908917960E+09, 2.345098339307384E+08,
2460945.500000000, A.D. 2025-Sep-27 00:00:00.0000, -4.095184475822056E+09, -2.800376930815790E+09, 2.348400548158233E+08,
2460952.500000000, A.D. 2025-Oct-04 00:00:00.0000, -4.093551387092130E+09, -2.803298925414156E+09, 2.351701823407694E+08,
2460959.500000000, A.D. 2025-Oct-11 00:00:00.0000, -4.091916665005120E+09, -2.806219890765238E+09, 2.355002163789032E+08,
2460966.500000000, A.D. 2025-Oct-18 00:00:00.0000, -4.090280308849208E+09, -2.809139824760573E+09, 2.358301568097148E+08,
2460973.500000000, A.D. 2025-Oct-25 00:00:00.0000, -4.088642318186995E+09, -2.812058725137276E+09, 2.361600035298105E+08,
2460980.500000000, A.D. 2025-Nov-01 00:00:00.0000, -4.087002692965421E+09, -2.814976589572680E+09, 2.364897564578687E+08,
2460987.500000000, A.D. 2025-Nov-08 00:00:00.0000, -4.085361433593662E+09, -2.817893415898389E+09, 2.368194155277160E+08,
2460994.500000000, A.D. 2025-Nov-15 00:00:00.0000, -4.083718540841240E+09, -2.820809202491808E+09, 2.371489806509750E+08,
2461001.500000000, A.D. 2025-Nov-22 00:00:00.0000, -4.082074015153670E+09, -2.823723948624597E+09, 2.374784516301237E+08,
2461008.500000000, A.D. 2025-Nov-29 00:00:00.0000, -4.080427855538955E+09, -2.826637653632634E+09, 2.378078281285565E+08,
2461015.500000000, A.D. 2025-Dec-06 00:00:00.0000, -4.078780060302357E+09, -2.829550315043067E+09, 2.381371098952209E+08,
2461022.500000000, A.D. 2025-Dec-13 00:00:00.0000, -4.077130629195866E+09, -2.832461929028467E+09, 2.384662969284632E+08,
2461029.500000000, A.D. 2025-Dec-20 00:00:00.0000, -4.075479563489196E+09, -2.835372492164539E+09, 2.387953893421733E+08,
2461036.500000000, A.D. 2025-Dec-27 00:00:00.0000, -4.073826865036124E+09, -2.838282001899684E+09, 2.391243872444301E+08,
2461043.500000000, A.D. 2026-Jan-03 00:00:00.0000, -4.072172535795402E+09, -2.841190456351396E+09, 2.394532907121538E+08,
2461050.500000000, A.D. 2026-Jan-10 00:00:00.0000, -4.070516577696481E+09, -2.844097854107732E+09, 2.397820997962496E+08,
2461057.500000000, A.D. 2026-Jan-17 00:00:00.0000, -4.068858992617477E+09, -2.847004194124602E+09, 2.401108145284978E+08,
2461064.500000000, A.D. 2026-Jan-24 00:00:00.0000, -4.067199782397449E+09, -2.849909475695321E+09, 2.404394349249865E+08,
2461071.500000000, A.D. 2026-Jan-31 00:00:00.0000, -4.065538948859522E+09, -2.852813698498904E+09, 2.407679609834346E+08,
2461078.500000000, A.D. 2026-Feb-07 00:00:00.0000, -4.063876493783349E+09, -2.855716862783535E+09, 2.410963926641872E+08,
2461085.500000000, A.D. 2026-Feb-14 00:00:00.0000, -4.062212418573844E+09, -2.858618969699610E+09, 2.414247298305385E+08,
2461092.500000000, A.D. 2026-Feb-21 00:00:00.0000, -4.060546723238638E+09, -2.861520021204521E+09, 2.417529721600854E+08,
2461099.500000000, A.D. 2026-Feb-28 00:00:00.0000, -4.058879405759082E+09, -2.864420018385130E+09, 2.420811192209810E+08,
2461106.500000000, A.D. 2026-Mar-07 00:00:00.0000, -4.057210463913359E+09, -2.867318960147502E+09, 2.424091707426105E+08,
2461113.500000000, A.D. 2026-Mar-14 00:00:00.0000, -4.055539896775983E+09, -2.870216844606518E+09, 2.427371266355575E+08,
2461120.500000000, A.D. 2026-Mar-21 00:00:00.0000, -4.053867704110819E+09, -2.873113670277287E+09, 2.430649868342645E+08,
2461127.500000000, A.D. 2026-Mar-28 00:00:00.0000, -4.052193885666996E+09, -2.876009436039691E+09, 2.433927512308830E+08,
2461134.500000000, A.D. 2026-Apr-04 00:00:00.0000, -4.050518440981477E+09, -2.878904140841695E+09, 2.437204196769164E+08,
2461141.500000000, A.D. 2026-Apr-11 00:00:00.0000, -4.048841369414293E+09, -2.881797783501385E+09, 2.440479919983121E+08,
2461148.500000000, A.D. 2026-Apr-18 00:00:00.0000, -4.047162670257114E+09, -2.884690362614449E+09, 2.443754680090327E+08,
2461155.500000000, A.D. 2026-Apr-25 00:00:00.0000, -4.045482342869031E+09, -2.887581876552415E+09, 2.447028475203203E+08,
2461162.500000000, A.D. 2026-May-02 00:00:00.0000, -4.043800386808570E+09, -2.890472323581256E+09, 2.450301303406011E+08,
2461169.500000000, A.D. 2026-May-09 00:00:00.0000, -4.042116801836913E+09, -2.893361702166602E+09, 2.453573162493583E+08,
2461176.500000000, A.D. 2026-May-16 00:00:00.0000, -4.040431587414032E+09, -2.896250011327167E+09, 2.456844049217410E+08,
2461183.500000000, A.D. 2026-May-23 00:00:00.0000, -4.038744741635612E+09, -2.899137250014019E+09, 2.460113958827790E+08,
2461190.500000000, A.D. 2026-May-30 00:00:00.0000, -4.037056261688991E+09, -2.902023415196074E+09, 2.463382887079535E+08,
2461197.500000000, A.D. 2026-Jun-06 00:00:00.0000, -4.035366146145326E+09, -2.904908501925350E+09, 2.466650832316364E+08,
2461204.500000000, A.D. 2026-Jun-13 00:00:00.0000, -4.033674395421981E+09, -2.907792505183045E+09, 2.469917794432899E+08,
2461211.500000000, A.D. 2026-Jun-20 00:00:00.0000, -4.031981010916142E+09, -2.910675420580264E+09, 2.473183773563001E+08,
2461218.500000000, A.D. 2026-Jun-27 00:00:00.0000, -4.030285994508010E+09, -2.913557244253244E+09, 2.476448769772028E+08,
2461225.500000000, A.D. 2026-Jul-04 00:00:00.0000, -4.028589348433705E+09, -2.916437972727922E+09, 2.479712783117062E+08,
2461232.500000000, A.D. 2026-Jul-11 00:00:00.0000, -4.026891075273950E+09, -2.919317602885711E+09, 2.482975813731658E+08,
2461239.500000000, A.D. 2026-Jul-18 00:00:00.0000, -4.025191177965841E+09, -2.922196132004686E+09, 2.486237861868403E+08,
2461246.500000000, A.D. 2026-Jul-25 00:00:00.0000, -4.023489659813265E+09, -2.925073557873404E+09, 2.489498927876892E+08,
2461253.500000000, A.D. 2026-Aug-01 00:00:00.0000, -4.021786524447914E+09, -2.927949879025381E+09, 2.492759012031657E+08,
2461260.500000000, A.D. 2026-Aug-08 00:00:00.0000, -4.020081775526041E+09, -2.930825095130063E+09, 2.496018113982247E+08,
2461267.500000000, A.D. 2026-Aug-15 00:00:00.0000, -4.018375415745996E+09, -2.933699207089737E+09, 2.499276231811846E+08,
2461274.500000000, A.D. 2026-Aug-22 00:00:00.0000, -4.016667445947703E+09, -2.936572215620988E+09, 2.502533362400004E+08,
$$EOE